FLOCK 2K-29             
1 42871U 17042AY  17293.29556166  .00004784  00000-0  14626-3 0  9993
2 42871  96.9952 197.1050 0009658 258.3344 101.6817 15.34265351 14828
FLOCK 2K-30             
1 42872U 17042AZ  17294.46880867  .00007227  00000-0  21968-3 0  9994
2 42872  96.9950 198.2166 0009669 254.5173 105.5003 15.34280863 14990
FLOCK 2K-44             
1 42873U 17042BA  17294.20539650  .00005749  00000-0  17537-3 0  9992
2 42873  96.9953 197.9748 0010637 241.8585 118.1584 15.34244834 14968
FLOCK 2K-43             
1 42874U 17042BB  17294.34734461  .00002741  00000-0  86585-4 0  9994
2 42874  96.9951 198.0828 0011174 241.4189 118.5931 15.33570362 14980
FLOCK 2K-41             
1 42875U 17042BC  17294.46492963  .00012230  00000-0  37043-3 0  9994
2 42875  96.9950 198.2208 0010793 242.0866 117.9286 15.34236148 15001
FLOCK 2K-36             
1 42876U 17042BD  17294.26587367  .00004639  00000-0  14190-3 0  9998
2 42876  96.9954 198.0424 0010909 242.5274 117.4861 15.34257461 14971
FLOCK 2K-35             
1 42877U 17042BE  17294.52875901  .00006786  00000-0  20642-3 0  9996
2 42877  96.9950 198.2867 0010822 241.6699 118.3454 15.34270333 15013
FLOCK 2K-34             
1 42878U 17042BF  17294.39489857  .00004853  00000-0  14816-3 0  9992
2 42878  96.9953 198.1629 0010964 242.2813 117.7319 15.34293698 14992
FLOCK 2K-33             
1 42879U 17042BG  17294.19663073  .00004987  00000-0  15239-3 0  9993
2 42879  96.9946 197.9815 0011056 242.5931 117.4188 15.34252500 14961
FLOCK 2K-28             
1 42880U 17042BH  17294.21368735  .00002584  00000-0  81710-4 0  9994
2 42880  96.9954 197.9649 0011209 242.5888 117.4216 15.33587109 14965
LEMUR-2-ARTFISCHER      
1 42881U 17042BJ  17293.81410475  .00005466  00000-0  16835-3 0  9996
2 42881  96.9981 197.6333 0011675 247.4095 112.5914 15.33953832 14897
FLOCK 2K-27             
1 42882U 17042BK  17294.32502099  .00002783  00000-0  86107-4 0  9997
2 42882  96.9951 198.1115 0011088 242.9372 117.0741 15.34219115 14983
FLOCK 2K-26             
1 42883U 17042BL  17294.38741250  .00010701  00000-0  32403-3 0  9996
2 42883  96.9950 198.1749 0011052 241.4530 118.5601 15.34272633 14993
FLOCK 2K-25             
1 42884U 17042BM  17294.26293426  .00002871  00000-0  88784-4 0  9994
2 42884  96.9948 198.0403 0010958 242.4955 117.5175 15.34212507 14970
FLOCK 2K-20             
1 42885U 17042BN  17294.38611854  .00007650  00000-0  23262-3 0  9996
2 42885  96.9952 198.1785 0011155 241.7233 118.2885 15.34237976 14996
FLOCK 2K-19             
1 42886U 17042BP  17294.38913722  .00003979  00000-0  12214-3 0  9991
2 42886  96.9953 198.1756 0011118 241.7054 118.3068 15.34224162 14993
FLOCK 2K-18             
1 42887U 17042BQ  17293.79194867  .00002789  00000-0  85713-4 0  9990
2 42887  96.9952 197.6292 0011467 242.9428 117.0646 15.34423334 14908
FLOCK 2K-17             
1 42888U 17042BR  17294.25159606  .00003444  00000-0  10575-3 0  9997
2 42888  96.9947 198.0537 0011377 241.1500 118.8602 15.34305718 14975
FLOCK 2K-16             
1 42889U 17042BS  17293.79762281  .00003637  00000-0  11144-3 0  9992
2 42889  96.9951 197.6246 0010980 243.1583 116.8539 15.34338116 14903
FLOCK 2K-15             
1 42890U 17042BT  17293.79109820  .00004556  00000-0  13857-3 0  9992
2 42890  96.9956 197.6364 0011387 242.1363 117.8728 15.34441532 14906
FLOCK 2K-13             
1 42891U 17042BU  17294.44971468  .00003646  00000-0  11198-3 0  9996
2 42891  96.9951 198.2411 0011358 237.6889 122.3256 15.34253825 15007
FLOCK 2K-14             
1 42892U 17042BV  17293.79310577  .00002677  00000-0  82545-4 0  9990
2 42892  96.9948 197.6238 0011403 242.0403 117.9687 15.34362048 14901
FLOCK 2K-12             
1 42893U 17042BW  17294.50654964  .00003144  00000-0  96071-4 0  9991
2 42893  96.9953 198.3150 0011491 238.3917 121.6206 15.34520583 15016
FLOCK 2K-11             
1 42894U 17042BX  17293.79418267  .00004809  00000-0  14668-3 0  9996
2 42894  96.9954 197.6297 0011411 239.4003 120.6116 15.34321879 14905
FLOCK 2K-10             
1 42895U 17042BY  17293.72421840  .00002731  00000-0  84132-4 0  9997
2 42895  96.9949 197.5665 0011558 240.5653 119.4438 15.34365044 14897
FLOCK 2K-09             
1 42896U 17042BZ  17293.78624647  .00002885  00000-0  88608-4 0  9996
2 42896  96.9953 197.6367 0011267 238.7211 121.2930 15.34427625 15072
FLOCK 2K-06             
1 42897U 17042CA  17294.27930990  .00005616  00000-0  17143-3 0  9993
2 42897  96.9949 198.0251 0009438 254.5820 105.4381 15.34244580 14973
SILU-1 (SILKROAD 1)     
1 42903U 17021F   17294.48396958  .00018194  00000-0  20675-3 0  9990
2 42903  42.7815 323.5314 0006496  56.8182  86.6732 15.61957845 12481
